OPS 6582 (TRANSIT 5B-5) 
1 00965U 64083D   22155.89965568  .00000026  00000+0  23909-4 0  9996
2 00965  90.0259 195.4030 0038878 265.4951 267.4167 13.56779904843813
OSCAR 7 (AO-7)          
1 07530U 74089B   22155.67620359 -.00000035  00000+0  70078-4 0  9990
2 07530 101.9036 135.5062 0012643  66.9276 105.9217 12.53655175175863
UOSAT 2 (UO-11)         
1 14781U 84021B   22155.90715124  .00000449  00000+0  60391-4 0  9999
2 14781  97.6168 143.9137 0008673  14.0812 346.0643 14.83659297 38188
NOAA 9                  
1 15427U 84123A   22155.68546646  .00000048  00000+0  47299-4 0  9993
2 15427  99.0445 127.8702 0014416 197.8867 334.9676 14.16200661934800
LUSAT (LO-19)           
1 20442U 90005G   22155.60313318  .00000052  00000+0  35705-4 0  9996
2 20442  98.7930 120.2687 0011230 201.5557 158.5155 14.33060605691260
ITAMSAT (IO-26)         
1 22826U 93061D   22155.87784074  .00000037  00000+0  31788-4 0  9999
2 22826  98.8817 186.5293 0010078  77.1880 283.0427 14.30518005496613
RADIO ROSTO (RS-15)     
1 23439U 94085A   22155.98028852 -.00000037  00000+0  15882-3 0  9991
2 23439  64.8161 165.7901 0167960 274.6592  83.5167 11.27572441130088
JAS-2 (FO-29)           
1 24278U 96046B   22155.86238186 -.00000036  00000+0  15554-5 0  9999
2 24278  98.5166 181.2809 0349548 316.1185  41.2669 13.53115617273909
NOAA 15                 
1 25338U 98030A   22156.14199391  .00000130  00000+0  72773-4 0  9997
2 25338  98.6445 185.8382 0009812 340.0785  20.0011 14.26134024251516
TECHSAT 1B (GO-32)      
1 25397U 98043D   22156.13037812  .00000027  00000+0  31455-4 0  9991
2 25397  98.8171 106.5661 0002146 117.6680 242.4716 14.23755490241899
ISS (ZARYA)             
1 25544U 98067A   22156.15037205  .00008547  00000+0  15823-3 0  9994
2 25544  51.6449  36.2070 0004577 196.3587 298.4146 15.49876730343319
ORSTED                  
1 25635U 99008B   22155.91522941  .00000127  00000+0  37881-4 0  9995
2 25635  96.4615  23.7642 0137059 220.8467 138.2397 14.48469430228460
PHASE 3D (AO-40)        
1 26609U 00072B   22153.44919891 -.00000167  00000+0  00000+0 0  9993
2 26609   6.8446 273.4261 7993365  12.4966 358.8659  1.25588735 98968
PCSAT (NO-44)           
1 26931U 01043C   22155.51929576  .00000057  00000+0  53306-4 0  9990
2 26931  67.0514  91.7823 0007794 265.4520  94.5691 14.30704594 79554
SAUDISAT 1C (SO-50)     
1 27607U 02058C   22155.92333667  .00000243  00000+0  54097-4 0  9998
2 27607  64.5552 340.2456 0077734 296.8782  62.4390 14.76117527 46527
CUTE-1 (CO-55)          
1 27844U 03031E   22155.90583067  .00000141  00000+0  82710-4 0  9992
2 27844  98.6783 163.7820 0010774 133.5043 226.7033 14.22448054982087
CUBESAT XI-IV (CO-57)   
1 27848U 03031J   22155.51309172  .00000127  00000+0  76946-4 0  9994
2 27848  98.6830 163.9174 0010387 147.6310 212.5506 14.22005544981845
MOZHAYETS 4 (RS-22)     
1 27939U 03042A   22156.19163714  .00000385  00000+0  76872-4 0  9996
2 27939  98.1906 296.9165 0011830 243.5989 116.3997 14.67343458999240
INMARSAT 4-F1           
1 28628U 05009A   22156.10809834 -.00000251  00000+0  00000+0 0  9996
2 28628   3.6028  34.9326 0002797  40.9118   0.0809  1.00272358 62892
NOAA 18                 
1 28654U 05018A   22156.09535820  .00000124  00000+0  91019-4 0  9997
2 28654  98.9492 226.5408 0014253  11.2481 348.9007 14.12737685878320
CUBESAT XI-V            
1 28895U 05043F   22155.80919083  .00000555  00000+0  11398-3 0  9996
2 28895  98.1051 287.3838 0016828 176.6816 183.4501 14.64325628885562
METOP-A                 
1 29499U 06044A   22155.89887731  .00000810  00000+0  11545-3 0  9990
2 29499  98.4511 200.1041 0198943  47.6974 128.4986 14.67207421808831
CARTOSAT-2 (IRS-P7)     
1 29710U 07001B   22156.18160490  .00013548  00000+0  33816-3 0  9996
2 29710  97.8652 260.9415 0153538 100.6800 261.1769 15.28985437834363
FALCONSAT-3             
1 30776U 07006E   22155.59642436  .00022705  00000+0  35727-3 0  9992
2 30776  35.4323 344.4503 0003516 332.6489  27.4057 15.52652827847588
CAPE-1                  
1 31130U 07012P   22155.80899303  .00000567  00000+0  12918-3 0  9994
2 31130  98.2691  96.4623 0094647 333.3707  26.2647 14.57099380803252
CARTOSAT-2A             
1 32783U 08021A   22156.17084875  .00000025  00000+0  10530-4 0  9999
2 32783  97.9646 216.5267 0012304 202.5045 157.5643 14.78628663761201
CUTE-1.7+APD II (CO-65) 
1 32785U 08021C   22155.86858736  .00001101  00000+0  12098-3 0  9997
2 32785  97.6566 127.1169 0010972 277.0451  82.9519 14.89553743764682
COMPASS-1               
1 32787U 08021E   22156.20676624  .00001702  00000+0  15771-3 0  9990
2 32787  97.5615 138.6225 0011742 179.0377 181.0869 14.95716341766270
AAUSAT-II               
1 32788U 08021F   22155.47384120  .00001832  00000+0  16229-3 0  9999
2 32788  97.5329 141.2510 0011582 158.6021 201.5688 14.97387658766499
DELFI-C3 (DO-64)        
1 32789U 08021G   22155.52568644  .00006882  00000+0  38700-3 0  9999
2 32789  97.3393 182.2940 0010416  21.9627 338.2049 15.13534933769974
SEEDS II (CO-66)        
1 32791U 08021J   22156.17515238  .00001343  00000+0  13571-3 0  9991
2 32791  97.6108 132.9216 0011358 225.6892 134.3397 14.92613821765444
YUBILEINY (RS-30)       
1 32953U 08025A   22156.06484144  .00000021  00000+0  80971-4 0  9995
2 32953  82.5041 191.6360 0018012 288.7456  71.1674 12.43110580636794
FENGYUN 3A              
1 32958U 08026A   22156.12573811  .00000044  00000+0  41490-4 0  9996
2 32958  98.5017 119.2617 0009860  62.4745 297.7432 14.18719615726582
PRISM (HITOMI)          
1 33493U 09002B   22156.20194986  .00001690  00000+0  14206-3 0  9999
2 33493  98.2301 142.0811 0013784 203.4276 156.6319 14.99728973727153
STARS (KUKAI)           
1 33498U 09002G   22155.67485345  .00000799  00000+0  11297-3 0  9992
2 33498  98.1704  47.4593 0009438 297.5237  62.5015 14.79962710719540
KKS-1 (KISEKI)          
1 33499U 09002H   22155.76889790  .00000425  00000+0  69502-4 0  9994
2 33499  98.2195  37.6035 0009106   5.0323 355.0976 14.76000475718372
NOAA 19                 
1 33591U 09005A   22156.16602296  .00000139  00000+0  10024-3 0  9995
2 33591  99.1484 190.0443 0013265 219.0588 140.9626 14.12572517686710
SWISSCUBE               
1 35932U 09051B   22155.32677925  .00000377  00000+0  95022-4 0  9991
2 35932  98.5700  10.8981 0008791  87.8731 272.3473 14.56849932674184
BEESAT-1                
1 35933U 09051C   22155.55671248  .00000333  00000+0  85204-4 0  9992
2 35933  98.5642  12.7729 0006971  97.7641 262.4348 14.56868242674297
ITUPSAT1                
1 35935U 09051E   22155.84115564  .00000290  00000+0  77049-4 0  9990
2 35935  98.5743  13.1243 0009258 100.1626 260.0615 14.55978532674047
XIWANG-1 (HOPE-1)       
1 36122U 09072B   22155.42668874 -.00000018  00000+0  65824-4 0  9990
2 36122 100.1819 127.2655 0007727  16.6903 343.4464 13.16369230599096
CARTOSAT-2B             
1 36795U 10035A   22156.14120398  .00000469  00000+0  71037-4 0  9993
2 36795  97.9603 216.6495 0012466 285.2600  74.7239 14.78678568642241
TISAT 1                 
1 36799U 10035E   22155.85146743  .00001537  00000+0  15432-3 0  9999
2 36799  98.1836   5.8003 0012822 132.9767 227.2528 14.92836029645880
FENGYUN 3B              
1 37214U 10059A   22156.11234288  .00000003  00000+0  25823-4 0  9993
2 37214  99.0913 161.8664 0022842  32.2770 327.9795 14.14256222599218
JUGNU                   
1 37839U 11058B   22155.61842831  .00000349  00000+0  44252-4 0  9999
2 37839  19.9607 253.3214 0019055  15.6013  11.9127 14.12785194550328
SRMSAT                  
1 37841U 11058D   22155.80760457  .00000356  00000+0  50631-4 0  9992
2 37841  19.9735 331.3591 0011808 205.1023 182.8756 14.10754622549451
M-CUBED & EXP-1 PRIME   
1 37855U 11061F   22155.27168587  .00008323  00000+0  36813-3 0  9995
2 37855 101.7073 267.3809 0154007 102.0733 259.7787 15.12112131579247
HORYU-2                 
1 38340U 12025D   22155.67279458  .00000779  00000+0  11911-3 0  9999
2 38340  98.1946 233.8767 0010026 267.6919  92.3142 14.76612771530351
METOP-B                 
1 38771U 12049A   22156.09642625  .00000046  00000+0  40918-4 0  9997
2 38771  98.6961 216.0315 0001998  95.5033 320.6424 14.21486783503976
SARAL                   
1 39086U 13009A   22155.88317964  .00000025  00000+0  25421-4 0  9994
2 39086  98.5476 341.7104 0000725  24.2270 335.8948 14.32044318484688
AAUSAT 3                
1 39087U 13009B   22156.08240111  .00000415  00000+0  15681-3 0  9996
2 39087  98.3999 355.9544 0011774 307.8530  52.1587 14.36170307485802
STRAND-1                
1 39090U 13009E   22155.47201636  .00000012  00000+0  19190-4 0  9994
2 39090  98.4050 353.9479 0008186 316.3806  43.6732 14.35294595485536
BRITE-AUSTRIA           
1 39091U 13009F   22155.80515991  .00000053  00000+0  33311-4 0  9990
2 39091  98.4068 353.4391 0009667 321.4107  38.6387 14.35271565485611
UNIBRITE                
1 39092U 13009G   22155.82567673  .00000052  00000+0  33340-4 0  9998
2 39092  98.4101 353.2190 0008510 316.9052  43.1467 14.35142011485577
SOMP                    
1 39134U 13015E   22155.86908163  .00008918  00000+0  32484-3 0  9995
2 39134  64.8615 103.1827 0034488 282.5744  77.1530 15.28206238504934
BEESAT-3                
1 39135U 13015F   22156.18391290  .00005965  00000+0  25170-3 0  9992
2 39135  64.8654 137.9077 0037463 289.4386  70.2696 15.23624438504673
BEESAT-2                
1 39136U 13015G   22155.69875227  .00005527  00000+0  24416-3 0  9991
2 39136  64.8734 147.5611 0015537 297.3348  62.6199 15.22661004503972
NEE-01 PEGASO           
1 39151U 13018B   22156.07931259  .00000669  00000+0  93310-4 0  9994
2 39151  97.9903 261.7851 0015537 297.2687  62.6942 14.80911977491853
CUBEBUG-1 (CAPITAN BETO)
1 39153U 13018D   22156.01746245  .00000803  00000+0  10894-3 0  9994
2 39153  98.0116 266.0991 0015352 291.6145  68.3432 14.81601384491999
